NORAD_CAT_ID,OBJECT_NAME,OBJECT_TYPE,EPOCH,MEAN_MOTION,ECCENTRICITY,INCLINATION,RA_OF_ASC_NODE,ARG_OF_PERICENTER,MEAN_ANOMALY,BSTAR,MEAN_MOTION_DOT,MEAN_MOTION_DDOT,TLE_LINE0,TLE_LINE1,TLE_LINE2,SEMIMAJOR_AXIS,PERIOD,APOGEE,PERIGEE,DECAYED
52559.0,STARLINK-3953,PAYLOAD,2024-07-05 11:20:19,15.08836462,0.0001384,53.2195,347.6584,97.2691,262.8458,8.8825e-05,1.126e-05,0.0,0 STARLINK-3953,1 52559U 22051AC  24187.47245113  .00001126  00000-0  88825-4 0  9990,2 52559  53.2195 347.6584 0001384  97.2691 262.8458 15.08836462119223,6917.891,95.438,540.714,538.799,0.0
52559.0,STARLINK-3953,PAYLOAD,2024-07-05 14:31:05,15.0883985,0.0001393,53.2199,347.0651,94.4235,265.6916,0.00012395,1.685e-05,0.0,0 STARLINK-3953,1 52559U 22051AC  24187.60492870  .00001685  00000-0  12395-3 0  9997,2 52559  53.2199 347.0651 0001393  94.4235 265.6916 15.08839850119177,6917.881,95.438,540.71,538.782,0.0
52559.0,STARLINK-3953,PAYLOAD,2024-07-05 17:41:51,15.08841121,0.0001315,53.2195,346.4718,93.1841,266.9302,0.00015611,2.198e-05,0.0,0 STARLINK-3953,1 52559U 22051AC  24187.73740707  .00002198  00000-0  15611-3 0  9990,2 52559  53.2195 346.4718 0001315  93.1841 266.9302 15.08841121119192,6917.877,95.437,540.652,538.832,0.0
52559.0,STARLINK-3953,PAYLOAD,2024-07-06 03:14:11,15.088219,0.0001219,53.2185,344.6885,101.5669,258.546,0.00025662,3.797e-05,0.0,0 STARLINK-3953,1 52559U 22051AC  24188.13485902  .00003797  00000-0  25662-3 0  9991,2 52559  53.2185 344.6885 0001219 101.5669 258.5460 15.08821900119321,6917.936,95.439,540.644,538.957,0.0
52559.0,STARLINK-3953,PAYLOAD,2024-07-06 14:21:53,15.08834147,0.0001422,53.2189,342.6067,103.9918,256.1233,1.7185e-05,-1.4e-07,0.0,0 STARLINK-3953,1 52559U 22051AC  24188.59853621 -.00000014  00000-0  17185-4 0  9990,2 52559  53.2189 342.6067 0001422 103.9918 256.1233 15.08834147119323,6917.898,95.438,540.747,538.78,0.0
52559.0,STARLINK-3953,PAYLOAD,2024-07-06 19:08:02,15.08840937,0.0001452,53.2197,341.7122,92.9978,267.118,3.7779e-05,3.13e-06,0.0,0 STARLINK-3953,1 52559U 22051AC  24188.79725189  .00000313  00000-0  37779-4 0  9991,2 52559  53.2197 341.7122 0001452  92.9978 267.1180 15.08840937119428,6917.878,95.437,540.747,538.738,0.0
52559.0,STARLINK-3953,PAYLOAD,2024-07-07 14:12:40,15.08839862,0.000147,53.2189,338.1435,98.1265,261.9894,5.0138e-05,5.1e-06,0.0,0 STARLINK-3953,1 52559U 22051AC  24189.59213321  .00000510  00000-0  50138-4 0  9993,2 52559  53.2189 338.1435 0001470  98.1265 261.9894 15.08839862119477,6917.881,95.438,540.763,538.729,0.0
52559.0,STARLINK-3953,PAYLOAD,2024-07-07 20:34:12,15.08850858,0.0001287,53.218,336.9522,90.0837,270.0302,9.7192e-05,1.26e-05,0.0,0 STARLINK-3953,1 52559U 22051AC  24189.85708454  .00001260  00000-0  97192-4 0  9992,2 52559  53.2180 336.9522 0001287  90.0837 270.0302 15.08850858119588,6917.847,95.437,540.603,538.822,0.0
52559.0,STARLINK-3953,PAYLOAD,2024-07-08 09:17:17,15.08836253,0.0001401,53.2162,334.5731,85.6996,274.4156,0.00012256,1.663e-05,0.0,0 STARLINK-3953,1 52559U 22051AC  24190.38701273  .00001663  00000-0  12256-3 0  9998,2 52559  53.2162 334.5731 0001401  85.6996 274.4156 15.08836253119665,6917.892,95.438,540.726,538.788,0.0
52559.0,STARLINK-3953,PAYLOAD,2024-07-08 14:03:27,15.08836921,0.0001623,53.2182,333.6798,82.5857,277.532,0.00010048,1.311e-05,0.0,0 STARLINK-3953,1 52559U 22051AC  24190.58573412  .00001311  00000-0  10048-3 0  9999,2 52559  53.2182 333.6798 0001623  82.5857 277.5320 15.08836921119623,6917.89,95.438,540.878,538.632,0.0
52559.0,STARLINK-3953,PAYLOAD,2024-07-08 17:14:13,15.08841857,0.0001489,53.2191,333.0867,82.5471,277.5691,4.4139e-05,4.15e-06,0.0,0 STARLINK-3953,1 52559U 22051AC  24190.71821314  .00000415  00000-0  44139-4 0  9994,2 52559  53.2191 333.0867 0001489  82.5471 277.5691 15.08841857119643,6917.875,95.437,540.77,538.71,0.0
52559.0,STARLINK-3953,PAYLOAD,2024-07-09 13:54:14,15.088381,0.0001303,53.2178,329.2217,88.1971,271.917,3.5179e-05,2.72e-06,0.0,0 STARLINK-3953,1 52559U 22051AC  24191.57933529  .00000272  00000-0  35179-4 0  9996,2 52559  53.2178 329.2217 0001303  88.1971 271.9170 15.08838100119777,6917.886,95.438,540.653,538.85,0.0
52559.0,STARLINK-3953,PAYLOAD,2024-07-09 15:29:37,15.08838253,0.0001198,53.2173,328.9228,91.3078,268.8052,4.3666e-05,4.07e-06,0.0,0 STARLINK-3953,1 52559U 22051AC  24191.64557434  .00000407  00000-0  43666-4 0  9991,2 52559  53.2173 328.9228 0001198  91.3078 268.8052 15.08838253119858,6917.886,95.438,540.579,538.922,0.0
52559.0,STARLINK-3953,PAYLOAD,2024-07-10 02:37:18,15.08848827,0.0001231,53.2175,326.8416,90.6494,269.464,-5.3302e-06,-3.73e-06,0.0,0 STARLINK-3953,1 52559U 22051AC  24192.10924768 -.00000373  00000-0 -53302-5 0  9994,2 52559  53.2175 326.8416 0001231  90.6494 269.4640 15.08848827119924,6917.853,95.437,540.57,538.867,0.0
52559.0,STARLINK-3953,PAYLOAD,2024-07-10 15:20:24,15.08839574,0.0001377,53.2177,324.463,85.2487,274.8662,6.0198e-05,6.7e-06,0.0,0 STARLINK-3953,1 52559U 22051AC  24192.63917238  .00000670  00000-0  60198-4 0  9994,2 52559  53.2177 324.4630 0001377  85.2487 274.8662 15.08839574119935,6917.882,95.438,540.699,538.794,0.0
52559.0,STARLINK-3953,PAYLOAD,2024-07-10 18:31:10,15.08846524,0.0001423,53.2182,323.8674,84.6002,275.5152,6.0123e-05,6.69e-06,0.0,0 STARLINK-3953,1 52559U 22051AC  24192.77164802  .00000669  00000-0  60123-4 0  9996,2 52559  53.2182 323.8674 0001423  84.6002 275.5152 15.08846524119957,6917.86,95.437,540.71,538.741,0.0
52559.0,STARLINK-3953,PAYLOAD,2024-07-11 13:35:48,15.08838029,0.0001725,53.2183,320.2994,94.58,265.539,1.4776e-05,-5.3e-07,0.0,0 STARLINK-3953,1 52559U 22051AC  24193.56653512 -.00000053  00000-0  14776-4 0  9996,2 52559  53.2183 320.2994 0001725  94.5800 265.5390 15.08838029120074,6917.886,95.438,540.945,538.558,0.0
52559.0,STARLINK-3953,PAYLOAD,2024-07-12 15:01:58,15.08843705,0.0001168,53.219,315.544,84.6243,275.4882,0.00011787,1.589e-05,0.0,0 STARLINK-3953,1 52559U 22051AC  24194.62636980  .00001589  00000-0  11787-3 0  9996,2 52559  53.2190 315.5440 0001168  84.6243 275.4882 15.08843705120238,6917.869,95.437,540.542,538.926,0.0
52559.0,STARLINK-3953,PAYLOAD,2024-07-13 13:17:22,15.08839854,0.0001315,53.2198,311.3835,80.6023,279.5118,8.3618e-05,1.043e-05,0.0,0 STARLINK-3953,1 52559U 22051AC  24195.55373553  .00001043  00000-0  83618-4 0  9991,2 52559  53.2198 311.3835 0001315  80.6023 279.5118 15.08839854120444,6917.881,95.438,540.656,538.836,0.0
52559.0,STARLINK-3953,PAYLOAD,2024-07-13 14:52:45,15.08842691,0.0001468,53.2197,311.0862,97.6058,262.5101,0.00011001,1.463e-05,0.0,0 STARLINK-3953,1 52559U 22051AC  24195.61997299  .00001463  00000-0  11001-3 0  9999,2 52559  53.2197 311.0862 0001468  97.6058 262.5101 15.08842691120385,6917.872,95.437,540.753,538.722,0.0
52559.0,STARLINK-3953,PAYLOAD,2024-07-14 14:43:32,15.08846831,0.0001303,53.2193,306.6258,99.7898,260.3241,9.2489e-05,1.185e-05,0.0,0 STARLINK-3953,1 52559U 22051AC  24196.61357068  .00001185  00000-0  92489-4 0  9995,2 52559  53.2193 306.6258 0001303  99.7898 260.3241 15.08846831120531,6917.86,95.437,540.626,538.823,0.0
52559.0,STARLINK-3953,PAYLOAD,2024-07-15 12:58:56,15.08841654,0.0001389,53.2181,302.4608,94.1459,265.9692,1.5736e-05,-3.7e-07,0.0,0 STARLINK-3953,1 52559U 22051AC  24197.54093613 -.00000037  00000-0  15736-4 0  9997,2 52559  53.2181 302.4608 0001389  94.1459 265.9692 15.08841654120749,6917.875,95.437,540.701,538.779,0.0
52559.0,STARLINK-3953,PAYLOAD,2024-07-15 14:34:19,15.08853323,0.0001168,53.2174,302.1624,106.2559,253.8562,0.00010997,1.463e-05,0.0,0 STARLINK-3953,1 52559U 22051AC  24197.60716477  .00001463  00000-0  10997-3 0  9990,2 52559  53.2174 302.1624 0001168 106.2559 253.8562 15.08853323120688,6917.84,95.437,540.513,538.897,0.0
52559.0,STARLINK-3953,PAYLOAD,2024-07-16 00:06:38,15.08840201,0.0001182,53.2173,300.3788,96.9477,263.165,4.5918e-05,4.43e-06,0.0,0 STARLINK-3953,1 52559U 22051AC  24198.00461390  .00000443  00000-0  45918-4 0  9995,2 52559  53.2173 300.3788 0001182  96.9477 263.1650 15.08840201120816,6917.88,95.438,540.562,538.927,0.0
52559.0,STARLINK-3953,PAYLOAD,2024-07-16 14:25:06,15.08854606,0.0001169,53.2178,297.7005,77.7054,282.4069,7.3586e-05,8.84e-06,0.0,0 STARLINK-3953,1 52559U 22051AC  24198.60076543  .00000884  00000-0  73586-4 0  9994,2 52559  53.2178 297.7005 0001169  77.7054 282.4069 15.08854606120839,6917.836,95.437,540.509,538.892,0.0
52559.0,STARLINK-3953,PAYLOAD,2024-07-17 12:40:30,15.08846256,0.000123,53.2172,293.5374,94.9167,265.1966,-1.2176e-05,-4.82e-06,0.0,0 STARLINK-3953,1 52559U 22051AC  24199.52813477 -.00000482  00000-0 -12176-4 0  9995,2 52559  53.2172 293.5374 0001230  94.9167 265.1966 15.08846256121041,6917.861,95.437,540.577,538.875,0.0
52559.0,STARLINK-3953,PAYLOAD,2024-07-18 12:31:18,15.08841398,0.0001514,53.2179,289.0762,99.4965,260.6198,-3.1745e-06,-3.39e-06,0.0,0 STARLINK-3953,1 52559U 22051AC  24200.52174016 -.00000339  00000-0 -31745-5 0  9992,2 52559  53.2179 289.0762 0001514  99.4965 260.6198 15.08841398121195,6917.876,95.437,540.788,538.694,0.0
52559.0,STARLINK-3953,PAYLOAD,2024-07-19 12:22:05,15.08838912,0.0001321,53.2176,284.615,95.9446,264.1697,0.00011099,1.479e-05,0.0,0 STARLINK-3953,1 52559U 22051AC  24201.51533986  .00001479  00000-0  11099-3 0  9999,2 52559  53.2176 284.6150 0001321  95.9446 264.1697 15.08838912121275,6917.884,95.438,540.663,538.835,0.0
52559.0,STARLINK-3953,PAYLOAD,2024-07-20 05:51:20,15.08828918,8.64e-05,53.217,281.3441,82.1328,277.9762,3.3015e-05,2.38e-06,0.0,0 STARLINK-3953,1 52559U 22051AC  24202.24399243  .00000238  00000-0  33015-4 0  9991,2 52559  53.2170 281.3441 0000864  82.1328 277.9762 15.08828918121454,6917.914,95.438,540.377,539.182,0.0
52559.0,STARLINK-3953,PAYLOAD,2024-07-20 12:12:52,15.08839614,0.0001336,53.217,280.1571,96.6139,263.5005,7.5082e-05,9.07e-06,0.0,0 STARLINK-3953,1 52559U 22051AC  24202.50894590  .00000907  00000-0  75082-4 0  9998,2 52559  53.2170 280.1571 0001336  96.6139 263.5005 15.08839614121490,6917.882,95.438,540.671,538.822,0.0
